{"type": "FeatureCollection", "features": [ {"type": "Feature", "properties": {"norad_id": 30344, "name": "FENGYUN 1C DEB", "group": "fengyun-1c-debris", "lat": 33.72463781776775, "lon": 52.43699816662372, "alt_km": 721.285295048272, "timestamp": "2025-12-02T19:35:50.831588+00:00", "meta": {"OBJECT_NAME": "FENGYUN 1C DEB", "OBJECT_ID": "1999-025ABF", "EPOCH": "2025-12-02T04:47:58.286688", "MEAN_MOTION": 14.51408249, "ECCENTRICITY": 0.00085073, "INCLINATION": 98.8213, "RA_OF_ASC_NODE": 57.7405, "ARG_OF_PERICENTER": 149.9364, "MEAN_ANOMALY": 264.6015, "EPHEMERIS_TYPE": 0, "CLASSIFICATION_TYPE": "U", "NORAD_CAT_ID": 30344, "ELEMENT_SET_NO": 999, "REV_AT_EPOCH": 97924, "BSTAR": 0.0029273726, "MEAN_MOTION_DOT": 0.00011654, "MEAN_MOTION_DDOT": 0}, "tle": {"line1": "1 30344U 99025ABF 25336.19998017  .00011654  00000+0  29274-2 0  9994", "line2": "2 30344  98.8213  57.7405 0008507 149.9364 264.6015 14.51408249979244"}}, "geometry": {"type": "Point", "coordinates": [52.43699816662372, 33.72463781776775]}}, {"type": "Feature", "properties": {"norad_id": 30345, "name": "FENGYUN 1C DEB", "group": "fengyun-1c-debris", "lat": 75.4542491262842, "lon": -1.5135637180604178, "alt_km": 757.9617939139507, "timestamp": "2025-12-02T19:35:50.831599+00:00", "meta": {"OBJECT_NAME": "FENGYUN 1C DEB", "OBJECT_ID": "1999-025ABG", "EPOCH": "2025-12-02T02:34:28.313760", "MEAN_MOTION": 14.41431967, "ECCENTRICITY": 0.00164109, "INCLINATION": 98.923, "RA_OF_ASC_NODE": 35.011, "ARG_OF_PERICENTER": 273.2619, "MEAN_ANOMALY": 86.6691, "EPHEMERIS_TYPE": 0, "CLASSIFICATION_TYPE": "U", "NORAD_CAT_ID": 30345, "ELEMENT_SET_NO": 999, "REV_AT_EPOCH": 97620, "BSTAR": 0.0023784283, "MEAN_MOTION_DOT": 7.685e-05, "MEAN_MOTION_DDOT": 0}, "tle": {"line1": "1 30345U 99025ABG 25336.10727215  .00007685  00000+0  23784-2 0  9995", "line2": "2 30345  98.9230  35.0110 0016410 273.2619  86.6691 14.41431967976200"}}, "geometry": {"type": "Point", "coordinates": [-1.5135637180604178, 75.4542491262842]}}, {"type": "Feature", "properties": {"norad_id": 30346, "name": "FENGYUN 1C DEB", "group": "fengyun-1c-debris", "lat": 65.5968886624823, "lon": 53.35404091838598, "alt_km": 733.9162290035738, "timestamp": "2025-12-02T19:35:50.831610+00:00", "meta": {"OBJECT_NAME": "FENGYUN 1C DEB", "OBJECT_ID": "1999-025ABH", "EPOCH": "2025-12-02T06:08:21.393024", "MEAN_MOTION": 14.33707407, "ECCENTRICITY": 0.0055943, "INCLINATION": 98.8093, "RA_OF_ASC_NODE": 72.7705, "ARG_OF_PERICENTER": 55.5978, "MEAN_ANOMALY": 358.827, "EPHEMERIS_TYPE": 0, "CLASSIFICATION_TYPE": "U", "NORAD_CAT_ID": 30346, "ELEMENT_SET_NO": 999, "REV_AT_EPOCH": 97263, "BSTAR": 0.0024011, "MEAN_MOTION_DOT": 6.743e-05, "MEAN_MOTION_DDOT": 0}, "tle": {"line1": "1 30346U 99025ABH 25336.25580316  .00006743  00000+0  24011-2 0  9999", "line2": "2 30346  98.8093  72.7705 0055943  55.5978 358.8270 14.33707407972634"}}, "geometry": {"type": "Point", "coordinates": [53.35404091838598, 65.5968886624823]}}, {"type": "Feature", "properties": {"norad_id": 30347, "name": "FENGYUN 1C DEB", "group": "fengyun-1c-debris", "lat": 54.54307259764516, "lon": -6.430204785611773, "alt_km": 863.0037936984345, "timestamp": "2025-12-02T19:35:50.831620+00:00", "meta": {"OBJECT_NAME": "FENGYUN 1C DEB", "OBJECT_ID": "1999-025ABJ", "EPOCH": "2025-12-02T12:24:30.648960", "MEAN_MOTION": 13.92761536, "ECCENTRICITY": 0.0150926, "INCLINATION": 98.3771, "RA_OF_ASC_NODE": 161.3575, "ARG_OF_PERICENTER": 62.0194, "MEAN_ANOMALY": 359.9221, "EPHEMERIS_TYPE": 0, "CLASSIFICATION_TYPE": "U", "NORAD_CAT_ID": 30347, "ELEMENT_SET_NO": 999, "REV_AT_EPOCH": 95818, "BSTAR": 0.00020767, "MEAN_MOTION_DOT": 2.58e-06, "MEAN_MOTION_DDOT": 0}, "tle": {"line1": "1 30347U 99025ABJ 25336.51702140  .00000258  00000+0  20767-3 0  9990", "line2": "2 30347  98.3771 161.3575 0150926  62.0194 359.9221 13.92761536958182"}}, "geometry": {"type": "Point", "coordinates": [-6.430204785611773, 54.54307259764516]}}, {"type": "Feature", "properties": {"norad_id": 30348, "name": "FENGYUN 1C DEB", "group": "fengyun-1c-debris", "lat": -42.595617092488084, "lon": 79.55929567981443, "alt_km": 782.4409005562102, "timestamp": "2025-12-02T19:35:50.831630+00:00", "meta": {"OBJECT_NAME": "FENGYUN 1C DEB", "OBJECT_ID": "1999-025ABK", "EPOCH": "2025-12-02T05:00:16.487424", "MEAN_MOTION": 14.34906052, "ECCENTRICITY": 0.0017778, "INCLINATION": 98.8641, "RA_OF_ASC_NODE": 70.6863, "ARG_OF_PERICENTER": 51.015, "MEAN_ANOMALY": 6.9111, "EPHEMERIS_TYPE": 0, "CLASSIFICATION_TYPE": "U", "NORAD_CAT_ID": 30348, "ELEMENT_SET_NO": 999, "REV_AT_EPOCH": 97383, "BSTAR": 0.0024684, "MEAN_MOTION_DOT": 6.989e-05, "MEAN_MOTION_DDOT": 0}, "tle": {"line1": "1 30348U 99025ABK 25336.20852416  .00006989  00000+0  24684-2 0  9997", "line2": "2 30348  98.8641  70.6863 0017778  51.0150   6.9111 14.34906052973830"}}, "geometry": {"type": "Point", "coordinates": [79.55929567981443, -42.595617092488084]}}, {"type": "Feature", "properties": {"norad_id": 30349, "name": "FENGYUN 1C DEB", "group": "fengyun-1c-debris", "lat": 68.42681145491316, "lon": -82.75986888640848, "alt_km": 793.1567569991475, "timestamp": "2025-12-02T19:35:50.831641+00:00", "meta": {"OBJECT_NAME": "FENGYUN 1C DEB", "OBJECT_ID": "1999-025ABL", "EPOCH": "2025-12-02T11:18:45.364032", "MEAN_MOTION": 14.10972575, "ECCENTRICITY": 0.0089592, "INCLINATION": 98.5833, "RA_OF_ASC_NODE": 299.3671, "ARG_OF_PERICENTER": 41.0016, "MEAN_ANOMALY": 76.1834, "EPHEMERIS_TYPE": 0, "CLASSIFICATION_TYPE": "U", "NORAD_CAT_ID": 30349, "ELEMENT_SET_NO": 999, "REV_AT_EPOCH": 96086, "BSTAR": 0.0025379, "MEAN_MOTION_DOT": 4.693e-05, "MEAN_MOTION_DDOT": 0}, "tle": {"line1": "1 30349U 99025ABL 25336.47135838  .00004693  00000+0  25379-2 0  9991", "line2": "2 30349  98.5833 299.3671 0089592  41.0016  76.1834 14.10972575960868"}}, "geometry": {"type": "Point", "coordinates": [-82.75986888640848, 68.42681145491316]}}, {"type": "Feature", "properties": {"norad_id": 30350, "name": "FENGYUN 1C DEB", "group": "fengyun-1c-debris", "lat": -64.74204869571658, "lon": 174.11708351925452, "alt_km": 840.1452195404336, "timestamp": "2025-12-02T19:35:50.831652+00:00", "meta": {"OBJECT_NAME": "FENGYUN 1C DEB", "OBJECT_ID": "1999-025ABM", "EPOCH": "2025-12-02T11:21:09.519840", "MEAN_MOTION": 13.82783994, "ECCENTRICITY": 0.0219548, "INCLINATION": 98.0929, "RA_OF_ASC_NODE": 156.2693, "ARG_OF_PERICENTER": 337.0745, "MEAN_ANOMALY": 49.4769, "EPHEMERIS_TYPE": 0, "CLASSIFICATION_TYPE": "U", "NORAD_CAT_ID": 30350, "ELEMENT_SET_NO": 999, "REV_AT_EPOCH": 94840, "BSTAR": 0.00083661, "MEAN_MOTION_DOT": 1.059e-05, "MEAN_MOTION_DDOT": 0}, "tle": {"line1": "1 30350U 99025ABM 25336.47302685  .00001059  00000+0  83661-3 0  9991", "line2": "2 30350  98.0929 156.2693 0219548 337.0745  49.4769 13.82783994948408"}}, "geometry": {"type": "Point", "coordinates": [174.11708351925452, -64.74204869571658]}}, {"type": "Feature", "properties": {"norad_id": 30352, "name": "FENGYUN 1C DEB", "group": "fengyun-1c-debris", "lat": 42.69198328168071, "lon": -9.99229165648044, "alt_km": 852.5120655992123, "timestamp": "2025-12-02T19:35:50.831663+00:00", "meta": {"OBJECT_NAME": "FENGYUN 1C DEB", "OBJECT_ID": "1999-025ABP", "EPOCH": "2025-12-02T07:32:58.725312", "MEAN_MOTION": 14.07572549, "ECCENTRICITY": 0.0028259, "INCLINATION": 98.7652, "RA_OF_ASC_NODE": 357.7033, "ARG_OF_PERICENTER": 349.1985, "MEAN_ANOMALY": 31.624, "EPHEMERIS_TYPE": 0, "CLASSIFICATION_TYPE": "U", "NORAD_CAT_ID": 30352, "ELEMENT_SET_NO": 999, "REV_AT_EPOCH": 96764, "BSTAR": 0.00018866, "MEAN_MOTION_DOT": 2.77e-06, "MEAN_MOTION_DDOT": 0}, "tle": {"line1": "1 30352U 99025ABP 25336.31456858  .00000277  00000+0  18866-3 0  9994", "line2": "2 30352  98.7652 357.7033 0028259 349.1985  31.6240 14.07572549967647"}}, "geometry": {"type": "Point", "coordinates": [-9.99229165648044, 42.69198328168071]}}, {"type": "Feature", "properties": {"norad_id": 30355, "name": "FENGYUN 1C DEB", "group": "fengyun-1c-debris", "lat": -6.16067127585307, "lon": -17.586995341022508, "alt_km": 795.9532865658175, "timestamp": "2025-12-02T19:35:50.831673+00:00", "meta": {"OBJECT_NAME": "FENGYUN 1C DEB", "OBJECT_ID": "1999-025ABS", "EPOCH": "2025-12-02T06:09:21.187872", "MEAN_MOTION": 14.18773726, "ECCENTRICITY": 0.0053562, "INCLINATION": 98.5889, "RA_OF_ASC_NODE": 340.9358, "ARG_OF_PERICENTER": 340.0272, "MEAN_ANOMALY": 34.7296, "EPHEMERIS_TYPE": 0, "CLASSIFICATION_TYPE": "U", "NORAD_CAT_ID": 30355, "ELEMENT_SET_NO": 999, "REV_AT_EPOCH": 97202, "BSTAR": 0.00084805, "MEAN_MOTION_DOT": 1.745e-05, "MEAN_MOTION_DDOT": 0}, "tle": {"line1": "1 30355U 99025ABS 25336.25649523  .00001745  00000+0  84805-3 0  9990", "line2": "2 30355  98.5889 340.9358 0053562 340.0272  34.7296 14.18773726972023"}}, "geometry": {"type": "Point", "coordinates": [-17.586995341022508, -6.16067127585307]}}, {"type": "Feature", "properties": {"norad_id": 30356, "name": "FENGYUN 1C DEB", "group": "fengyun-1c-debris", "lat": 0.7490573374548929, "lon": -27.756768669559587, "alt_km": 824.4060894974036, "timestamp": "2025-12-02T19:35:50.831683+00:00", "meta": {"OBJECT_NAME": "FENGYUN 1C DEB", "OBJECT_ID": "1999-025ABT", "EPOCH": "2025-12-02T11:41:14.275392", "MEAN_MOTION": 14.12989442, "ECCENTRICITY": 0.0052261, "INCLINATION": 98.6811, "RA_OF_ASC_NODE": 332.0381, "ARG_OF_PERICENTER": 318.4501, "MEAN_ANOMALY": 166.4089, "EPHEMERIS_TYPE": 0, "CLASSIFICATION_TYPE": "U", "NORAD_CAT_ID": 30356, "ELEMENT_SET_NO": 999, "REV_AT_EPOCH": 96876, "BSTAR": 0.00090862, "MEAN_MOTION_DOT": 1.673e-05, "MEAN_MOTION_DDOT": 0}, "tle": {"line1": "1 30356U 99025ABT 25336.48697078  .00001673  00000+0  90862-3 0  9994", "line2": "2 30356  98.6811 332.0381 0052261 318.4501 166.4089 14.12989442968764"}}, "geometry": {"type": "Point", "coordinates": [-27.756768669559587, 0.7490573374548929]}}]}